NORAD_CAT_ID,OBJECT_NAME,OBJECT_TYPE,EPOCH,MEAN_MOTION,ECCENTRICITY,INCLINATION,RA_OF_ASC_NODE,ARG_OF_PERICENTER,MEAN_ANOMALY,BSTAR,MEAN_MOTION_DOT,MEAN_MOTION_DDOT,TLE_LINE0,TLE_LINE1,TLE_LINE2,SEMIMAJOR_AXIS,PERIOD,APOGEE,PERIGEE,DECAYED
51105.0,STARLINK-3350,PAYLOAD,2022-08-08 14:40:08,15.08842062,0.000146,53.2163,45.8161,62.8408,297.2733,7.8284e-05,9.58e-06,0.0,0 STARLINK-3350,1 51105U 22005B   22220.61121428  .00000958  00000-0  78284-4 0  9999,2 51105  53.2163  45.8161 0001460  62.8408 297.2733 15.08842062 31258,6917.874,95.437,540.749,538.729,0.0
51105.0,STARLINK-3350,PAYLOAD,2022-08-08 21:01:40,15.08849455,0.0001261,53.2179,44.6262,127.7407,232.37,0.00013877,1.922e-05,0.0,0 STARLINK-3350,1 51105U 22005B   22220.87616420  .00001922  00000-0  13877-3 0  9996,2 51105  53.2179  44.6262 0001261 127.7407 232.3700 15.08849455 32408,6917.851,95.437,540.589,538.844,0.0
51105.0,STARLINK-3350,PAYLOAD,2022-08-09 11:20:08,15.08854275,0.0002065999999999,53.2179,41.9532,63.6761,296.4443,2.2091e-05,6.3e-07,0.0,0 STARLINK-3350,1 51105U 22005B   22221.47232559  .00000063  00000-0  22091-4 0  9994,2 51105  53.2179  41.9532 0002066  63.6761 296.4443 15.08854275 32493,6917.837,95.437,541.131,538.273,0.0
51105.0,STARLINK-3350,PAYLOAD,2022-08-09 16:06:19,15.08840757,0.0001478,53.2182,41.0595,75.5534,284.5622,1.087e-05,-1.15e-06,0.0,0 STARLINK-3350,1 51105U 22005B   22221.67105391 -.00000115  00000-0  10870-4 0  9990,2 51105  53.2182  41.0595 0001478  75.5534 284.5622 15.08840757 32524,6917.878000000002,95.438,540.766,538.721,0.0
51105.0,STARLINK-3350,PAYLOAD,2022-08-09 20:52:28,15.08868897,0.0001264999999999,53.2178,40.1674,73.7253,286.3879,-0.00055089,-9.051e-05,0.0,0 STARLINK-3350,1 51105U 22005B   22221.86977177 -.00009051  00000-0 -55089-3 0  9999,2 51105  53.2178  40.1674 0001265  73.7253 286.3879 15.08868897 31448,6917.792,95.436,540.5319999999998,538.7819999999998,0.0
51105.0,STARLINK-3350,PAYLOAD,2022-08-10 00:03:14,15.08876682,0.000107,53.217,39.5713,74.0094,286.1016,-0.00067205,-0.00010978,0.0,0 STARLINK-3350,1 51105U 22005B   22222.00224662 -.00010978  00000-0 -67205-3 0  9993,2 51105  53.2170  39.5713 0001070  74.0094 286.1016 15.08876682 32574,6917.768,95.435,540.373,538.893,0.0
51105.0,STARLINK-3350,PAYLOAD,2022-08-10 04:49:26,15.08773535,0.0001499,53.2178,38.6798,64.8981,295.2166,0.00085965,0.00013395,0.0,0 STARLINK-3350,1 51105U 22005B   22222.20100256  .00013395  00000-0  85965-3 0  9994,2 51105  53.2178  38.6798 0001499  64.8981 295.2166 15.08773535 32606,6918.084,95.442,540.986,538.9119999999998,0.0
51105.0,STARLINK-3350,PAYLOAD,2022-08-10 20:43:15,15.08842251,0.0001516,53.2173,35.7063,65.9607,294.1543,3.3207e-05,2.41e-06,0.0,0 STARLINK-3350,1 51105U 22005B   22222.86337657  .00000241  00000-0  33207-4 0  9992,2 51105  53.2173  35.7063 0001516  65.9607 294.1543 15.08842251 31597,6917.874,95.437,540.7869999999998,538.69,0.0
51105.0,STARLINK-3350,PAYLOAD,2022-08-11 04:40:11,15.08843344,0.0001559,53.2165,34.2191,65.515,294.6005,4.394100000000001e-05,4.11e-06,0.0,0 STARLINK-3350,1 51105U 22005B   22223.19457342  .00000411  00000-0  43941-4 0  9998,2 51105  53.2165  34.2191 0001559  65.5150 294.6005 15.08843344 31648,6917.87,95.437,540.814,538.6569999999998,0.0
51105.0,STARLINK-3350,PAYLOAD,2022-08-11 18:58:40,15.08828753,0.0001573,53.2182,31.5445,65.9774,294.1382,6.8307e-05,7.99e-06,0.0,0 STARLINK-3350,1 51105U 22005B   22223.79074662  .00000799  00000-0  68307-4 0  9996,2 51105  53.2182  31.5445 0001573  65.9774 294.1382 15.08828753 32844,6917.915,95.438,540.868,538.692,0.0
51105.0,STARLINK-3350,PAYLOAD,2022-08-12 10:52:31,15.088400199999995,0.0001453,53.2167,28.5685,69.7424,290.3724,0.00018802,2.706e-05,0.0,0 STARLINK-3350,1 51105U 22005B   22224.45314222  .00002706  00000-0  18802-3 0  9993,2 51105  53.2167  28.5685 0001453  69.7424 290.3724 15.08840020 32940,6917.88,95.438,540.75,538.74,0.0
51105.0,STARLINK-3350,PAYLOAD,2022-08-12 17:14:03,15.08847451,0.0001343,53.2165,27.379,64.9636,295.1496,0.00026391,3.916e-05,0.0,0 STARLINK-3350,1 51105U 22005B   22224.71809939  .00003916  00000-0  26391-3 0  9992,2 51105  53.2165  27.3790 0001343  64.9636 295.1496 15.08847451 31877,6917.858,95.437,540.6519999999998,538.794,0.0
51105.0,STARLINK-3350,PAYLOAD,2022-08-13 10:43:18,15.08843171,0.0001419999999999,53.2167,24.108,70.6475,289.4671,0.00023421,3.442e-05,0.0,0 STARLINK-3350,1 51105U 22005B   22225.44674128  .00003442  00000-0  23421-3 0  9998,2 51105  53.2167  24.1080 0001420  70.6475 289.4671 15.08843171 31985,6917.871,95.437,540.7180000000002,538.753,0.0
51105.0,STARLINK-3350,PAYLOAD,2022-08-13 20:15:37,15.08845944,0.0001489,53.2171,22.3249,65.488,294.6267,0.00021115,3.075e-05,0.0,0 STARLINK-3350,1 51105U 22005B   22225.84417975  .00003075  00000-0  21115-3 0  9997,2 51105  53.2171  22.3249 0001489  65.4880 294.6267 15.08845944 32041,6917.861999999999,95.437,540.757,538.697,0.0
51105.0,STARLINK-3350,PAYLOAD,2022-08-14 12:09:28,15.08845372,0.0001478,53.217,19.3508,65.0964,295.0181,0.00011132,1.484e-05,0.0,0 STARLINK-3350,1 51105U 22005B   22226.50657800  .00001484  00000-0  11132-3 0  9994,2 51105  53.2170  19.3508 0001478  65.0964 295.0181 15.08845372 32147,6917.864000000001,95.437,540.751,538.707,0.0
51105.0,STARLINK-3350,PAYLOAD,2022-08-14 20:06:24,15.08843195,0.0001436,53.2183,17.8647,69.4005,290.7141,2.281e-05,7.5e-07,0.0,0 STARLINK-3350,1 51105U 22005B   22226.83777911  .00000075  00000-0  22810-4 0  9997,2 51105  53.2183  17.8647 0001436  69.4005 290.7141 15.08843195 32190,6917.871,95.437,540.729,538.742,0.0
51105.0,STARLINK-3350,PAYLOAD,2022-08-15 12:00:15,15.08835209,0.0001391,53.2181,14.8908,67.1272,292.9867,2.477e-05,1.06e-06,0.0,0 STARLINK-3350,1 51105U 22005B   22227.50018333  .00000106  00000-0  24770-4 0  9990,2 51105  53.2181  14.8908 0001391  67.1272 292.9867 15.08835209 33407,6917.895,95.438,540.722,538.798,0.0
51105.0,STARLINK-3350,PAYLOAD,2022-08-15 16:46:25,15.08832686,0.0001365,53.2179,13.9987,64.1617,295.9516,5.7812e-06,-1.96e-06,0.0,0 STARLINK-3350,1 51105U 22005B   22227.69890558 -.00000196  00000-0  57812-5 0  9991,2 51105  53.2179  13.9987 0001365  64.1617 295.9516 15.08832686 32322,6917.903,95.438,540.712,538.823,0.0
51105.0,STARLINK-3350,PAYLOAD,2022-08-16 10:15:39,15.08839946,0.0001364,53.2179,10.7273,61.8999,298.2131,8.3673e-05,1.044e-05,0.0,0 STARLINK-3350,1 51105U 22005B   22228.42754019  .00001044  00000-0  83673-4 0  9999,2 51105  53.2179  10.7273 0001364  61.8999 298.2131 15.08839946 32438,6917.880999999999,95.438,540.689,538.802,0.0
51105.0,STARLINK-3350,PAYLOAD,2022-08-16 19:47:59,15.0882887,0.0001394,53.218,8.9434,61.5856,298.5276,-1.0393e-05,-4.53e-06,0.0,0 STARLINK-3350,1 51105U 22005B   22228.82499199 -.00000453  00000-0 -10393-4 0  9992,2 51105  53.2180   8.9434 0001394  61.5856 298.5276 15.08828870 33607,6917.9140000000025,95.438,540.744,538.815,0.0
51105.0,STARLINK-3350,PAYLOAD,2022-08-17 08:31:05,15.08817012,0.0001443999999999,53.2179,6.5645,62.4812,297.6326,-0.00011105,-2.054e-05,0.0,0 STARLINK-3350,1 51105U 22005B   22229.35492988 -.00002054  00000-0 -11105-3 0  9990,2 51105  53.2179   6.5645 0001444  62.4812 297.6326 15.08817012 33681,6917.951,95.439,540.815,538.817,0.0
51105.0,STARLINK-3350,PAYLOAD,2022-08-17 11:41:52,15.08814778,0.0001424,53.2178,5.9699,58.1237,301.9894,-3.7957e-05,-8.91e-06,0.0,0 STARLINK-3350,1 51105U 22005B   22229.48741142 -.00000891  00000-0 -37957-4 0  9994,2 51105  53.2178   5.9699 0001424  58.1237 301.9894 15.08814778 32597,6917.956999999999,95.439,540.808,538.837,0.0
51105.0,STARLINK-3350,PAYLOAD,2022-08-17 21:14:11,15.088234,0.0001465,53.2179,4.1857,57.5334,302.58,3.7451e-05,3.08e-06,0.0,0 STARLINK-3350,1 51105U 22005B   22229.88484963  .00000308  00000-0  37451-4 0  9993,2 51105  53.2179   4.1857 0001465  57.5334 302.5800 15.08823400 32654,6917.931,95.439,540.81,538.783,0.0
51105.0,STARLINK-3350,PAYLOAD,2022-08-18 21:04:56,15.08841116,6.15e-05,53.2234,359.7248,13.6648,346.4361,0.00019604,2.834e-05,0.0,0 STARLINK-3350,1 51105U 22005B   22230.87843339  .00002834  00000-0  19604-3 0  9995,2 51105  53.2234 359.7248 0000615  13.6648 346.4361 15.08841116 32806,6917.877,95.437,540.1669999999998,539.317,0.0
51105.0,STARLINK-3350,PAYLOAD,2022-08-19 01:51:05,15.08852749,0.0001662,53.2178,358.8335,62.869,297.2471,0.00044996,6.883e-05,0.0,0 STARLINK-3350,1 51105U 22005B   22231.07714731  .00006883  00000-0  44996-3 0  9991,2 51105  53.2178 358.8335 0001662  62.8690 297.2471 15.08852749 33941,6917.840999999999,95.437,540.856,538.557,0.0
51105.0,STARLINK-3350,PAYLOAD,2022-08-20 01:41:55,15.08839479,0.0005405,53.2178,354.3728,76.9949,283.1646,0.00018498,2.656e-05,0.0,0 STARLINK-3350,1 51105U 22005B   22232.07077993  .00002656  00000-0  18498-3 0  9996,2 51105  53.2178 354.3728 0005405  76.9949 283.1646 15.08839479 34090,6917.882,95.438,543.486,536.008,0.0
51105.0,STARLINK-3350,PAYLOAD,2022-08-20 11:14:12,15.08836996,0.0001388,53.2189,352.589,64.1508,295.9627,4.6594e-05,4.54e-06,0.0,0 STARLINK-3350,1 51105U 22005B   22232.46820167  .00000454  00000-0  46594-4 0  9991,2 51105  53.2189 352.5890 0001388  64.1508 295.9627 15.08836996 34156,6917.89,95.438,540.715,538.794,0.0
51105.0,STARLINK-3350,PAYLOAD,2022-08-20 17:35:44,15.08842344,0.0001384,53.2186,351.3992,64.7001,295.4135,2.1692e-05,5.7e-07,0.0,0 STARLINK-3350,1 51105U 22005B   22232.73315894  .00000057  00000-0  21692-4 0  9998,2 51105  53.2186 351.3992 0001384  64.7001 295.4135 15.08842344 33087,6917.873000000001,95.437,540.696,538.781,0.0
51105.0,STARLINK-3350,PAYLOAD,2022-08-21 12:40:22,15.08844063,0.0001423,53.2158,347.8302,66.6069,293.5073,4.3342e-05,4.02e-06,0.0,0 STARLINK-3350,1 51105U 22005B   22233.52803409  .00000402  00000-0  43342-4 0  9990,2 51105  53.2158 347.8302 0001423  66.6069 293.5073 15.08844063 34317,6917.868,95.437,540.717,538.749,0.0
